STARLINK-30442          
1 57868U 23144E   26068.01118689 -.00004271  00000+0 -14583-3 0  9993
2 57868  42.9990 288.9921 0001201 271.5467  88.5247 15.27566283137497
PELICAN-6               
1 66703U 25276AP  26068.70709364  .00077979  00000+0  29726-2 0  9998
2 66703  97.4276 144.2072 0003569 157.8575 202.2819 15.26377980 15334
